{
  "type": "FeatureCollection",
  "features": [
    {
      "type": "Feature",
      "properties": {
        "norad_id": 43783,
        "name": "KAZSTSAT",
        "group": "resource",
        "lat": -79.14920778703794,
        "lon": 165.59407313039688,
        "alt_km": 572.9354426747268,
        "timestamp": "2025-12-19T18:58:41.249979+00:00",
        "meta_object_name": "KAZSTSAT",
        "meta_object_id": "2018-099AB",
        "meta_epoch": "2025-12-19T01:47:43.400832",
        "meta_mean_motion": 14.99363796,
        "meta_eccentricity": 0.00059468,
        "meta_inclination": 97.4535,
        "meta_ra_of_asc_node": 27.9874,
        "meta_arg_of_pericenter": 301.8992,
        "meta_mean_anomaly": 58.1653,
        "meta_ephemeris_type": 0,
        "meta_classification_type": "U",
        "meta_norad_cat_id": 43783,
        "meta_element_set_no": 999,
        "meta_rev_at_epoch": 38431,
        "meta_bstar": 3.2653117e-05,
        "meta_mean_motion_dot": 3.44e-06,
        "meta_mean_motion_ddot": 0,
        "tle_line1": "1 43783U 18099AB  25353.07480788  .00000344  00000+0  32653-4 0  9995",
        "tle_line2": "2 43783  97.4535  27.9874 0005946 301.8992  58.1653 14.99363796384317"
      },
      "geometry": {
        "type": "Point",
        "coordinates": [
          165.59407313039688,
          -79.14920778703794
        ]
      }
    },
    {
      "type": "Feature",
      "properties": {
        "norad_id": 43831,
        "name": "SAUDISAT 5A",
        "group": "resource",
        "lat": -79.42702874648434,
        "lon": -169.79204601596308,
        "alt_km": 502.8842911871525,
        "timestamp": "2025-12-19T18:58:41.249989+00:00",
        "meta_object_name": "SAUDISAT 5A",
        "meta_object_id": "2018-102A",
        "meta_epoch": "2025-12-19T06:48:49.084416",
        "meta_mean_motion": 15.25733958,
        "meta_eccentricity": 0.00114737,
        "meta_inclination": 97.3349,
        "meta_ra_of_asc_node": 53.3491,
        "meta_arg_of_pericenter": 56.0839,
        "meta_mean_anomaly": 304.1489,
        "meta_ephemeris_type": 0,
        "meta_classification_type": "U",
        "meta_norad_cat_id": 43831,
        "meta_element_set_no": 999,
        "meta_rev_at_epoch": 38822,
        "meta_bstar": 0.00017965576,
        "meta_mean_motion_dot": 4.518e-05,
        "meta_mean_motion_ddot": 0,
        "tle_line1": "1 43831U 18102A   25353.28390144  .00004518  00000+0  17966-3 0  9999",
        "tle_line2": "2 43831  97.3349  53.3491 0011473  56.0839 304.1489 15.25733958388228"
      },
      "geometry": {
        "type": "Point",
        "coordinates": [
          -169.79204601596308,
          -79.42702874648434
        ]
      }
    },
    {
      "type": "Feature",
      "properties": {
        "norad_id": 43833,
        "name": "SAUDISAT 5B",
        "group": "resource",
        "lat": -36.350783535277294,
        "lon": 62.04426950816664,
        "alt_km": 494.3805814007683,
        "timestamp": "2025-12-19T18:58:41.249999+00:00",
        "meta_object_name": "SAUDISAT 5B",
        "meta_object_id": "2018-102C",
        "meta_epoch": "2025-12-19T08:07:22.442016",
        "meta_mean_motion": 15.26083661,
        "meta_eccentricity": 0.00122113,
        "meta_inclination": 97.3444,
        "meta_ra_of_asc_node": 56.153,
        "meta_arg_of_pericenter": 58.1405,
        "meta_mean_anomaly": 302.102,
        "meta_ephemeris_type": 0,
        "meta_classification_type": "U",
        "meta_norad_cat_id": 43833,
        "meta_element_set_no": 999,
        "meta_rev_at_epoch": 38834,
        "meta_bstar": 0.0001791828,
        "meta_mean_motion_dot": 4.555e-05,
        "meta_mean_motion_ddot": 0,
        "tle_line1": "1 43833U 18102C   25353.33845419  .00004555  00000+0  17918-3 0  9995",
        "tle_line2": "2 43833  97.3444  56.1530 0012211  58.1405 302.1020 15.26083661388346"
      },
      "geometry": {
        "type": "Point",
        "coordinates": [
          62.04426950816664,
          -36.350783535277294
        ]
      }
    },
    {
      "type": "Feature",
      "properties": {
        "norad_id": 44622,
        "name": "GAOFEN-10R",
        "group": "resource",
        "lat": -69.4273737339843,
        "lon": 99.2350542155365,
        "alt_km": 631.1099336346115,
        "timestamp": "2025-12-19T18:58:41.250010+00:00",
        "meta_object_name": "GAOFEN-10R",
        "meta_object_id": "2019-066A",
        "meta_epoch": "2025-12-19T06:30:46.262592",
        "meta_mean_motion": 14.82812997,
        "meta_eccentricity": 0.00074448,
        "meta_inclination": 98.0286,
        "meta_ra_of_asc_node": 300.8032,
        "meta_arg_of_pericenter": 23.1061,
        "meta_mean_anomaly": 337.0486,
        "meta_ephemeris_type": 0,
        "meta_classification_type": "U",
        "meta_norad_cat_id": 44622,
        "meta_element_set_no": 999,
        "meta_rev_at_epoch": 33571,
        "meta_bstar": 0.000146243,
        "meta_mean_motion_dot": 1.129e-05,
        "meta_mean_motion_ddot": 0,
        "tle_line1": "1 44622U 19066A   25353.27136878  .00001129  00000+0  14624-3 0  9992",
        "tle_line2": "2 44622  98.0286 300.8032 0007444  23.1061 337.0486 14.82812997335712"
      },
      "geometry": {
        "type": "Point",
        "coordinates": [
          99.2350542155365,
          -69.4273737339843
        ]
      }
    },
    {
      "type": "Feature",
      "properties": {
        "norad_id": 44804,
        "name": "CARTOSAT-3",
        "group": "resource",
        "lat": -74.25140347172793,
        "lon": -154.39606363242802,
        "alt_km": 524.8922916887332,
        "timestamp": "2025-12-19T18:58:41.250020+00:00",
        "meta_object_name": "CARTOSAT-3",
        "meta_object_id": "2019-081A",
        "meta_epoch": "2025-12-19T06:47:21.389280",
        "meta_mean_motion": 15.19204541,
        "meta_eccentricity": 0.00140016,
        "meta_inclination": 97.4583,
        "meta_ra_of_asc_node": 52.7834,
        "meta_arg_of_pericenter": 63.0163,
        "meta_mean_anomaly": 297.25,
        "meta_ephemeris_type": 0,
        "meta_classification_type": "U",
        "meta_norad_cat_id": 44804,
        "meta_element_set_no": 999,
        "meta_rev_at_epoch": 33615,
        "meta_bstar": 0.00011862827,
        "meta_mean_motion_dot": 2.434e-05,
        "meta_mean_motion_ddot": 0,
        "tle_line1": "1 44804U 19081A   25353.28288645  .00002434  00000+0  11863-3 0  9994",
        "tle_line2": "2 44804  97.4583  52.7834 0014001  63.0163 297.2500 15.19204541336157"
      },
      "geometry": {
        "type": "Point",
        "coordinates": [
          -154.39606363242802,
          -74.25140347172793
        ]
      }
    },
    {
      "type": "Feature",
      "properties": {
        "norad_id": 44819,
        "name": "GAOFEN-12 01",
        "group": "resource",
        "lat": 74.3600772977417,
        "lon": -150.74521161402012,
        "alt_km": 620.2343612742743,
        "timestamp": "2025-12-19T18:58:41.250029+00:00",
        "meta_object_name": "GAOFEN-12 01",
        "meta_object_id": "2019-082A",
        "meta_epoch": "2025-12-19T07:09:31.641696",
        "meta_mean_motion": 14.80664637,
        "meta_eccentricity": 0.00017371,
        "meta_inclination": 97.8124,
        "meta_ra_of_asc_node": 359.4071,
        "meta_arg_of_pericenter": 199.824,
        "meta_mean_anomaly": 160.2906,
        "meta_ephemeris_type": 0,
        "meta_classification_type": "U",
        "meta_norad_cat_id": 44819,
        "meta_element_set_no": 999,
        "meta_rev_at_epoch": 32747,
        "meta_bstar": 5.3342294e-05,
        "meta_mean_motion_dot": 3.59e-06,
        "meta_mean_motion_ddot": 0,
        "tle_line1": "1 44819U 19082A   25353.29828289  .00000359  00000+0  53342-4 0  9999",
        "tle_line2": "2 44819  97.8124 359.4071 0001737 199.8240 160.2906 14.80664637327471"
      },
      "geometry": {
        "type": "Point",
        "coordinates": [
          -150.74521161402012,
          74.3600772977417
        ]
      }
    },
    {
      "type": "Feature",
      "properties": {
        "norad_id": 44873,
        "name": "CSG-1",
        "group": "resource",
        "lat": -70.80027909038617,
        "lon": -28.428343465202904,
        "alt_km": 630.8605369848983,
        "timestamp": "2025-12-19T18:58:41.250040+00:00",
        "meta_object_name": "CSG-1",
        "meta_object_id": "2019-092A",
        "meta_epoch": "2025-12-19T06:30:03.506688",
        "meta_mean_motion": 14.82148745,
        "meta_eccentricity": 0.00014909,
        "meta_inclination": 97.8803,
        "meta_ra_of_asc_node": 174.4966,
        "meta_arg_of_pericenter": 86.3391,
        "meta_mean_anomaly": 273.7993,
        "meta_ephemeris_type": 0,
        "meta_classification_type": "U",
        "meta_norad_cat_id": 44873,
        "meta_element_set_no": 999,
        "meta_rev_at_epoch": 32482,
        "meta_bstar": 5.9281995e-05,
        "meta_mean_motion_dot": 4.2e-06,
        "meta_mean_motion_ddot": 0,
        "tle_line1": "1 44873U 19092A   25353.27087392  .00000420  00000+0  59282-4 0  9998",
        "tle_line2": "2 44873  97.8803 174.4966 0001490  86.3391 273.7993 14.82148745324827"
      },
      "geometry": {
        "type": "Point",
        "coordinates": [
          -28.428343465202904,
          -70.80027909038617
        ]
      }
    }
  ]
}